LEMUR-2-FINNIAN         
1 66782U 25276DX  26181.95157214  .00003262  00000+0  26337-3 0  9999
2 66782  97.5329 252.5102 0008526  48.9900 311.2060 15.00487351 22061
LEMUR-2-STARLIGHT       
1 66783U 25276DY  26182.18707608  .00008310  00000+0  68503-3 0  9994
2 66783  97.5235 252.3472 0014607  87.8473 272.4423 14.99204639 32290
LEMUR-2-TARTIFLETTE     
1 66784U 25276DZ  26182.18540241  .00007353  00000+0  60685-3 0  9992
2 66784  97.5239 252.3534 0013629  95.3035 264.9744 14.99206357 32296
LEMUR-2-VUKASIN         
1 66785U 25276EA  26182.63392250  .00001648  00000+0  13557-3 0  9995
2 66785  97.5274 253.1182 0005017  90.9657 269.2142 15.00440726 32313
LEMUR-2-HOTSPUR-TOM     
1 66786U 25276EB  26182.64615391  .00007057  00000+0  58399-3 0  9994
2 66786  97.5230 252.7766 0014291  85.7025 274.5831 14.99112380 32294
LEMUR-2-MYRA            
1 66787U 25276EC  26182.13259921  .00009140  00000+0  72821-3 0  9993
2 66787  97.5216 252.5570 0018095  97.0589 263.2694 15.00438886 32306
LEMUR-2 FIKRETDENGIZ    
1 67363U 26004A   26182.25239049  .00004954  00000+0  53930-3 0  9994
2 67363  97.8012 180.5944 0010542  93.9444 266.2979 14.88427886 25374
TWILIGHT-1 OBJECT B     
1 67364U 26004B   26182.48472382  .00002011  00000+0  22619-3 0  9991
2 67364  97.8063 180.8320 0010251  84.3629 275.8757 14.87752491 25415
LEMUR-2-MARIO-SOUSA     
1 67365U 26004C   26182.50304760  .00003849  00000+0  41833-3 0  9998
2 67365  97.7985 180.8375 0010253  93.9948 266.2441 14.88628322 25421
LEMUR-2-SONNENBLUME     
1 67367U 26004E   26182.50352134  .00002936  00000+0  32245-3 0  9991
2 67367  97.7985 180.8166 0009735  95.7356 264.4971 14.88391535 25428
LEMUR-2-WOBLER          
1 67368U 26004F   26180.94895952  .00004607  00000+0  49984-3 0  9993
2 67368  97.8036 179.4215 0010056  91.3444 268.8925 14.88603443 25199
LEMUR-2-GRAM-E-SUE      
1 67370U 26004H   26182.48621899  .00002923  00000+0  31998-3 0  9999
2 67370  97.7971 180.8153 0008874  97.8197 262.4028 14.88535168 25425
LEMUR-2-KATIE           
1 67387U 26004AA  26182.45824952  .00004566  00000+0  47746-3 0  9992
2 67387  97.8032 181.2936 0004437  63.8524 296.3149 14.90138659 25432
LEMUR-2-HCS-BAZUS       
1 67388U 26004AB  26182.25543966  .00005530  00000+0  57601-3 0  9997
2 67388  97.8022 181.0731 0003898  62.5466 297.6148 14.90203589 25409
