OBJECT_NAME,OBJECT_ID,EPOCH,MEAN_MOTION,ECCENTRICITY,INCLINATION,RA_OF_ASC_NODE,ARG_OF_PERICENTER,MEAN_ANOMALY,EPHEMERIS_TYPE,CLASSIFICATION_TYPE,NORAD_CAT_ID,ELEMENT_SET_NO,REV_AT_EPOCH,BSTAR,MEAN_MOTION_DOT,MEAN_MOTION_DDOT
LEMUR-2-FINNIAN,2025-276DX,2026-06-30T22:50:15.832896,15.00487351,.00085267,97.5329,252.5102,48.9900,311.2060,0,U,66782,999,2206,.26337326E-3,.3262E-4,0
LEMUR-2-STARLIGHT,2025-276DY,2026-07-01T04:29:23.373312,14.99204639,.0014607,97.5235,252.3472,87.8473,272.4423,0,U,66783,999,3229,.68503E-3,.831E-4,0
LEMUR-2-TARTIFLETTE,2025-276DZ,2026-07-01T04:26:58.768224,14.99206357,.0013629,97.5239,252.3534,95.3035,264.9744,0,U,66784,999,3229,.60685E-3,.7353E-4,0
LEMUR-2-VUKASIN,2025-276EA,2026-07-01T15:12:50.904000,15.00440726,.00050174,97.5274,253.1182,90.9657,269.2142,0,U,66785,999,3231,.13556738E-3,.1648E-4,0
LEMUR-2-HOTSPUR-TOM,2025-276EB,2026-07-01T15:30:27.697824,14.99112380,.00142916,97.5230,252.7766,85.7025,274.5831,0,U,66786,999,3229,.58398842E-3,.7057E-4,0
LEMUR-2-MYRA,2025-276EC,2026-07-01T03:10:56.571744,15.00438886,.00180957,97.5216,252.5570,97.0589,263.2694,0,U,66787,999,3230,.72821325E-3,.914E-4,0
LEMUR-2 FIKRETDENGIZ,2026-004A,2026-07-01T06:03:26.538336,14.88427886,.0010542,97.8012,180.5944,93.9444,266.2979,0,U,67363,999,2537,.5393E-3,.4954E-4,0
TWILIGHT-1 OBJECT B,2026-004B,2026-07-01T11:38:00.138048,14.87752491,.00102512,97.8063,180.8320,84.3629,275.8757,0,U,67364,999,2541,.22618897E-3,.2011E-4,0
LEMUR-2-MARIO-SOUSA,2026-004C,2026-07-01T12:04:23.312640,14.88628322,.0010253,97.7985,180.8375,93.9948,266.2441,0,U,67365,999,2542,.41832867E-3,.3849E-4,0
LEMUR-2-SONNENBLUME,2026-004E,2026-07-01T12:05:04.243776,14.88391535,.00097356,97.7985,180.8166,95.7356,264.4971,0,U,67367,999,2542,.32245089E-3,.2936E-4,0
LEMUR-2-WOBLER,2026-004F,2026-06-29T22:46:30.102528,14.88603443,.00100563,97.8036,179.4215,91.3444,268.8925,0,U,67368,999,2519,.49983798E-3,.4607E-4,0
LEMUR-2-GRAM-E-SUE,2026-004H,2026-07-01T11:40:09.320736,14.88535168,.00088742,97.7971,180.8153,97.8197,262.4028,0,U,67370,999,2542,.31998305E-3,.2923E-4,0
LEMUR-2-KATIE,2026-004AA,2026-07-01T10:59:52.758528,14.90138659,.00044376,97.8032,181.2936,63.8524,296.3149,0,U,67387,999,2543,.47745589E-3,.4566E-4,0
LEMUR-2-HCS-BAZUS,2026-004AB,2026-07-01T06:07:49.986624,14.90203589,.0003898,97.8022,181.0731,62.5466,297.6148,0,U,67388,999,2540,.57601E-3,.553E-4,0
